Suburb,postcode,state,Council
ACACIA RIDGE,4110,QLD,Brisbane City Council
ACKLAND,,NULL,Toowoomba Regional Council
ACLAND,4401,QLD,Toowoomba Regional Council
ADARE,4343,QLD,Lockyer Valley Regional Council
ADVANCETOWN,4211,QLD,Gold Coast City
AGNES WATER,4677,QLD,Gladstone Regional Council
AGNES WATERS,,NULL,Gladstone Regional Council
AIRLIE BEACH,4802,QLD,Whitsunday Regional Council
ALBANY CREEK,4035,QLD,Moreton Bay Regional Council
ALBERTON,4207,QLD,Gold Coast City
ALBION,4822,QLD,Brisbane City Council
ALDERLEY,4051,QLD,Brisbane City Council
ALDERSHOT,4650,QLD,Fraser Coast Regional Council
ALEXANDRA HEADLAND,4572,QLD,Sunshine Coast Regional Council
ALEXANDRA HEADLANDS,,QLD,Sunshine Coast Regional Council
ALEXANDRA HILLS,4161,QLD,Redland Shire Council
ALGESTER,4115,QLD,Brisbane City Council
ALLENVIEW,4285,QLD,Scenic Rim Regional Council
ALLORA,4362,QLD,Southern Downs Regional Council
ALPHA,4724,QLD,Barcaldine Regional Council
ALPHADALE,2480,NSW,Out Of State
ALSTONVILLE,2477,NSW,Out Of State
AMAMOOR,4570,QLD,Gympie Regional Council
AMAROO,4829,QLD,Diamantina Shire Council
AMBERLEY,4306,QLD,Scenic Rim Regional Council
AMITY POINT,4183,QLD,Redland Shire Council
ANDURAMBA,4355,QLD,Toowoomba Regional Council
ANNERLEY,4103,QLD,Brisbane City Council
ANSTEAD,4070,QLD,Brisbane City Council
ARANA HILLS,4054,QLD,Moreton Bay Regional Council
ARATULA,4309,QLD,Scenic Rim Regional Council
ARCHERFIELD,4108,QLD,Brisbane City Council
ARMSTRONG CREEK,4520,QLD,Moreton Bay Regional Council
AROONA,4551,QLD,Sunshine Coast Regional Council
ARUNDEL,4214,QLD,Gold Coast City
ARUNDEL HILLS,,NULL,Gold Coast City
ASCOT,4007,QLD,Brisbane City Council
ASHBY,6065,WA,Lismore
ASHBY HEIGHTS,2463,NSW,Out Of State
ASHGROVE,4060,QLD,Brisbane City Council
ASHMORE,4214,QLD,Gold Coast City
ASPLEY,4034,QLD,Brisbane City Council
ATHERTON,4883,QLD,Atherton Shire Council
AUCHENFLOWER,4066,QLD,Brisbane City Council
AUGATHELLA,4477,QLD,Murweh Shire Council
AUGUSTINE HEIGHTS,4300,QLD,Ipswich City
AUSTINVILLE,4213,QLD,Gold Coast City
AUSTRIVILLE,,NULL,Logan City Council
BAFFLE CREEK,4674,QLD,Gladstone Regional Council
BAHRS SCRUB,4207,QLD,Logan City Council
BALD HILLS,4036,QLD,Brisbane City Council
BALD KNOB,4552,QLD,Sunshine Coast Regional Council
BALLANDEAN,4382,QLD,Sunshine Coast Regional Council
BALLINA,2478,NSW,Out Of State
BALLOGIE,4610,QLD,South Burnett Regional Council
BALMORAL,4171,QLD,Brisbane City Council
BALMORAL RIDGE,4552,QLD,Sunshine Coast Regional Council
BAN BAN SPRINGS,4625,QLD,Burdekin Shire Council
BANGALOW,2479,NSW,Byron 
BANKSIA BEACH,4507,QLD,Moreton Bay Regional Council
BANYO,4014,QLD,Brisbane City Council
BARAMBAH,4601,QLD,Gympie Regional Council
BARBISVALE,,NULL,Lismore
BARCALDINE,4725,QLD,Barcaldine Regional Council
BARDON,4065,QLD,Brisbane City Council
BARELLAN POINT,4306,QLD,Scenic Rim Regional Council
BARGARA,4670,QLD,Bundaberg Regional Council
BATTERY HILL,4551,QLD,Sunshine Coast Regional Council
BAUPLE,4650,QLD,Fraser Coast Regional Council
BEACHMERE,4510,QLD,Moreton Bay Regional Council
BEAUDESERT,4285,QLD,Scenic Rim Regional Council
BEECHMERE,,NULL,Moreton Bay Regional Council
BEECHMONT,4211,QLD,Gold Coast City
BEENLEIGH,4207,QLD,Logan City Council
BEERBURRUM,4517,QLD,Sunshine Coast Regional Council
BEERWAH,4519,QLD,Sunshine Coast Regional Council
BELL,4408,QLD,Dalby Regional Council
BELLARA,4507,QLD,Moreton Bay Regional Council
BELLBIRD PARK,4300,QLD,Scenic Rim Regional Council
BELLBOWRIE,4070,QLD,Brisbane City Council
BELLI PARK,4562,QLD,Sunshine Coast Regional Council
BELLMERE,4510,QLD,Moreton Bay Regional Council
BELLS CREEK,4551,QLD,Sunshine Coast Regional Council
BELL'S CREEK,,NULL,Sunshine Coast Regional Council
BELLTHORPE,4514,QLD,Moreton Bay Regional Council
BELMERE,,NULL,Moreton Bay Regional Council
BELMONT,4153,QLD,Brisbane City Council
BELTHORPE,,NULL,Moreton Bay Regional Council
BENARABY,4680,QLD,Gladstone Regional Council
BENARKIN,4306,QLD,South Burnett Regional Council
BENORA POINT,,NULL,Logan City Council
BERRINBA,4117,QLD,Logan City Council
BETHANIA,4205,QLD,Logan City Council
BEXHILL,2480,NSW,Out Of State
BIARRA,4313,QLD,Somerset Regional Council
BIDDESTON,4401,QLD,Toowoomba Regional Council
BIEMER BAY,,NULL,Out Of State
BIGGENDEN,4621,QLD,North Burnett Regional Council
BIGGERA WATERS,4216,QLD,Gold Coast City
BILOELA,4715,QLD,Banana Shire Council
BINNA BURRA,4211,QLD,Scenic Rim Regional Council
BIRKDALE,4159,QLD,Redland Shire Council
BIRNAM ,4285,QLD,Scenic Rim Regional Council
BIRTINYA,4575,QLD,Sunshine Coast Regional Council
BLACK MOUNTAIN,4563,QLD,Sunshine Coast Regional Council
BLACK MOUNTIAN,,NULL,Lismore
BLACKALL,4472,QLD,Blackall Tambo Regional Council
BLACKALL RANGE,,NULL,Sunshine Coast Regional Council
BLACKBUTT,4306,QLD,South Burnett Regional Council
BLACKSTONE,4304,QLD,Ipswich City
BLI BLI,4560,QLD,Sunshine Coast Regional Council
BOKARINA,4575,QLD,Sunshine Coast Regional Council
BOLLON,4488,QLD,Balonne Shire Council
BONGAREE,4507,QLD,Moreton Bay Regional Council
BONOGIN,4213,QLD,Gold Coast City
BOOIE,4610,QLD,South Burnett Regional Council
BOONAH,4310,QLD,Scenic Rim Regional Council
BOONDAL,,NULL,Brisbane City Council
BOONDALL,4034,QLD,Brisbane City Council
BOONOO,,NULL,Out Of State
BOONOOROO,4650,QLD,Cooloola Shire Council
BOORAL,4655,QLD,Fraser Coast Regional Council
BOOREEN POINT,4565,QLD,Sunshine Coast Regional Council
BOORIE CREEK,,NULL,Lismore
BOOROOBIN,4552,QLD,Moreton Bay Regional Council
BOOVAL,4304,QLD,Scenic Rim Regional Council
BOPPLE,,NULL,Fraser Coast Regional Council
BOREEN POINT,4565,QLD,Sunshine Coast Regional Council
BORONIA HEIGHTS,4124,QLD,Logan City Council
BOWEN,4805,QLD,Whitsunday Regional Council
BOWEN HILLS,4006,QLD,Brisbane City Council
BOYLAND,4275,QLD,Scenic Rim Regional Council
BOYNE ISLAND,4680,QLD,Fraser Coast Regional Council
BOYRE ISLAND,,NULL,Gladstone Regional Council
BRACALBA,4512,QLD,Moreton Bay Regional Council
BRACKEN RIDGE,4017,QLD,Brisbane City Council
BRAMPTON ISLAND,,NULL,Whitsunday Regional Council
BRAY PARK,4500,QLD,Moreton Bay Regional Council
BREAKFAST CREEK,2849,NSW,Brisbane City Council
BRENDALE,4500,QLD,Moreton Bay Regional Council
BRIBIE ISLAND,4507,QLD,Moreton Bay Regional Council
BRIDGEMAN DOWNS,4035,QLD,Brisbane City Council
BRIDGES,4561,QLD,Sunshine Coast Regional Council
BRIGHTON,4017,QLD,Brisbane City Council
BRIGHTVIEW,4311,QLD,Somerset Regional Council
BRISBANE,9020,QLD,Brisbane City Council
BRISBANE ADELAIDE STREET,4000,QLD,Brisbane City Council
BRISBANE AIRPORT,4008,QLD,Brisbane City Council
BRISBANE CITY,4000,QLD,Brisbane City Council
BRISBANE EAST,,NULL,Brisbane City Council
BRISBANE GPO,4000,QLD,Brisbane City Council
BROADBEACH,4218,QLD,Gold Coast City
BROADWATER,4380,QLD,Gold Coast City
BROKEN HEAD,2481,NSW,Out Of State
BROOKFIELD,4069,QLD,Brisbane City Council
BROOKLANDS,4615,QLD,South Burnett Regional Council
BROOKSIDE CENTRE,4053,QLD,Brisbane City Council
BROOKSTEAD,4364,QLD,Toowoomba Regional Council
BROOLOO,4570,QLD,Gympie Regional Council
BROOWEENA,4620,QLD,Fraser Coast Regional Council
BROWNS PLAINS,4118,QLD,Logan City Council
BRUNSWICH HEADS,,NULL,Byron 
BRUNSWICK HEADS,2483,NSW,Out Of State
BRYDEN,4312,QLD,Somerset Regional Council
BRYMAROO,4403,QLD,Toowoomba Regional Council
BUARABA,4311,QLD,Somerset Regional Council
BUCCAN,4207,QLD,Logan City Council
BUCCARUMBI,2460,NSW,Out Of State
BUDDINA,4575,QLD,Sunshine Coast Regional Council
BUDERIM,4556,QLD,Sunshine Coast Regional Council
BUDERIM;,,NULL,Sunshine Coast Regional Council
BULCOCK BEACH,,NULL,Sunshine Coast Regional Council
BULIMBA,4171,QLD,Brisbane City Council
BULWER ISLAND,,NULL,Brisbane City Council
BUNDABERG,4670,QLD,Bundaberg Regional Council
BUNDABERG EAST,4670,QLD,Bundaberg Regional Council
BUNDAMBA,4304,QLD,Ipswich City
BUNDANOON,6522,WA,Out Of State
BUNDILLA,,NULL,Sunshine Coast Regional Council
BUNYA,4055,QLD,Moreton Bay Regional Council
BUNYA MOUNTAINS,4405,QLD,Western Downs Regional Council
BUNYAVILLE,,NULL,Moreton Bay Regional Council
BURBANK,4156,QLD,Brisbane City Council
BURKETOWN,4830,QLD,Burke Shire Council
BURLEIGH BC,,NULL,Gold Coast City
BURLEIGH HEADS,4220,QLD,Gold Coast City
BURLEIGH WATERS,4220,QLD,Gold Coast City
BURNETT HEADS,4670,QLD,Bundaberg Regional Council
BURNSIDE,4560,QLD,Sunshine Coast Regional Council
BURNSIDE(SUNSHINE COAST),,NULL,Sunshine Coast Regional Council
BURPENGARY,4505,QLD,Moreton Bay Regional Council
BURRINGBAR,2483,NSW,Out Of State
BURRUM HEADS,4659,QLD,Fraser Coast Regional Council
BUXTON,4660,QLD,Bundaberg Regional Council
BYCE,,NULL,South Burnett Regional Council
BYEE,4605,QLD,South Burnett Regional Council
BYFIELD,4703,QLD,Rockhampton Regional Council
BYRON BAY,2481,NSW,Out Of State
BYRRILL CREEK,2484,NSW,Out Of State
CABARIAH,,NULL,Toowoomba Regional Council
CABARITA BEACH,2488,NSW,Out Of State
CABARLAH,4352,QLD,Toowoomba Regional Council
CABBAGE TREE,3364,VIC,Logan City Council
CABBAGE TREE POINT,,NULL,Logan City Council
CABBANTA,,NULL,Byron 
CABOOLTURE,4510,QLD,Moreton Bay Regional Council
CAIRNS,4870,QLD,Cairns Regional Council
CALAMVALE,4116,QLD,Brisbane City Council
CALICO CREEK,4570,QLD,Gympie Regional Council
CALLIOPE,4680,QLD,Gladstone Regional Council
CALOUNDRA,4551,QLD,Sunshine Coast Regional Council
CALOUNDRA WEST,4551,QLD,Sunshine Coast Regional Council
CAMBOOYA,4358,QLD,Toowoomba Regional Council
CAMBROON,4552,QLD,Sunshine Coast Regional Council
CAMIRA,4300,QLD,Scenic Rim Regional Council
CAMOOWEAL,4828,QLD,Mount Isa City Council
CAMP HILL,4152,QLD,Brisbane City Council
CAMP MOUNTAIN,4520,QLD,Moreton Bay Regional Council
CANIABA,2480,NSW,Lismore
CANNON HILL,4170,QLD,Brisbane City Council
CANUNGRA,4275,QLD,Scenic Rim Regional Council
CAPALABA,4157,QLD,Redland Shire Council
CAPALABA WEST,,NULL,Brisbane City Council
CAPE MORETON,4025,QLD,Brisbane City Council
CAPE YORK,,NULL,Atherton Shire Council
CAPTAIN CREEK,4677,QLD,Gladstone Regional Council
CARBROOK,4130,QLD,Logan City Council
CARINA,4152,QLD,Redland Shire Council
CARINA HEIGHTS,4152,QLD,Brisbane City Council
CARINDALE,4152,QLD,Brisbane City Council
CARINDALE,4512,QLD,Brisbane City Council
CARMILA,4739,QLD,Isaac Regional Council
CARNEYS CREEK,4310,QLD,Scenic Rim Regional Council
CAROOL,2486,NSW,Out Of State
CARRARA,4211,QLD,Gold Coast City
CARSELDINE,4034,QLD,Brisbane City Council
CARTERS RIDGE,4563,QLD,Sunshine Coast Regional Council
CASHMERE,4500,QLD,Moreton Bay Regional Council
CASINO,2470,NSW,Out Of State
CASTAWAY BEACH,,NULL,Sunshine Coast Regional Council
CASTAWAYS BEACH,4567,QLD,Sunshine Coast Regional Council
CAWONGLA,2474,NSW,Out Of State
CECIL PLAINS,4407,QLD,Toowoomba Regional Council
CEDAR CREEK,4520,QLD,Logan City Council
CEDAR CREEK (BEENLEIGH),,NULL,Logan City Council
CEDAR CREEK (PINE RIVERS),,NULL,Moreton Bay Regional Council
CEDAR GROVE,4285,QLD,Logan City Council
CEDAR GROVE,4285,QLD,Somerset Regional Council
CEDAR POCKET,4570,QLD,Gympie Regional Council
CEDAR VALE,4285,QLD,Logan City Council
CEDARTON,4514,QLD,Moreton Bay Regional Council
CEDARVALE,,NULL,Moreton Bay Regional Council
CHAMBERS FLAT,4133,QLD,Logan City Council
CHANCELLOR PARK,,NULL,Sunshine Coast Regional Council
CHANDLER,4155,QLD,Brisbane City Council
CHAPEL HILL,4069,QLD,Brisbane City Council
CHARLEVILLE,4470,QLD,Murweh Shire Council
CHARTERS TOWERS,4820,QLD,Dalby Regional Council
CHATSWOOD HILLS,,NULL,Logan City Council
CHATSWORTH,4570,QLD,Gympie Regional Council
CHELMAR,,NULL,Brisbane City Council
CHELMER,4068,QLD,Brisbane City Council
CHERBOURG,4605,QLD,South Burnett Regional Council
CHERMSIDE,4032,QLD,Brisbane City Council
CHERMSIDE WEST,4032,QLD,Brisbane City Council
CHEVALLUM,4555,QLD,Sunshine Coast Regional Council
CHIFLEY,2606,ACT,Out Of State
CHILDERS,4660,QLD,Bundaberg Regional Council
CHINCHILLA,4413,QLD,Dalby Regional Council
CHINCILLA,,NULL,Dalby Regional Council
CHINDERAH,2487,NSW,Out Of State
CHINGHEE CREEK,4285,QLD,Scenic Rim Regional Council
CHURCHABLE,4311,QLD,Lockyer Valley Regional Council
CHURCHILL,4305,QLD,Ipswich City
CHUWAR,4306,QLD,Scenic Rim Regional Council
CINNABAR,4600,QLD,Gympie Regional Council
CLAGIRABA,4211,QLD,Gold Coast City
CLARENCE VALLEY,2014,NSW,Out Of State
CLARENDON,4311,QLD,Lockyer Valley Regional Council
CLAYFIELD,4011,QLD,Brisbane City Council
CLEAR MOUNTAIN,4500,QLD,Moreton Bay Regional Council
CLERMONT,4721,QLD,Isaac Regional Council
CLEVELAND,4163,QLD,Redland Shire Council
CLONCURRY,4824,QLD,Mount Isa City Council
CLONTARF,4357,QLD,Moreton Bay Regional Council
CLOSEBURN,4520,QLD,Moreton Bay Regional Council
CLOYNA,4605,QLD,South Burnett Regional Council
CLUNES,3370,VIC,Out Of State
CLUNES,2480,NSW,Out Of State
COALADALE,,NULL,Lismore
COBBLE CREEK,,NULL,Moreton Bay Regional Council
COBURG,3058,VIC,Out Of State
CODRINGTON,3285,VIC,Out Of State
CODROIBAH,,NULL,Sunshine Coast Regional Council
COES CREEK,4560,QLD,Sunshine Coast Regional Council
COFFS HARBOUR,2450,NSW,Out Of State
COLENVIEW,,NULL,Sunshine Coast Regional Council
COLINTON,4306,QLD,Somerset Regional Council
COLLINGTON,,NULL,Somerset Regional Council
COLUMBOOLA,4415,QLD,Western Downs Regional Council
COMMISSIONERS FLAT,4514,QLD,Moreton Bay Regional Council
COMSLIE,,NULL,Brisbane City Council
CONDAMINE,4416,QLD,Dalby Regional Council
CONONDALE,4552,QLD,Sunshine Coast Regional Council
COOCHIEMUDLO ISLAND,4184,QLD,Redland Shire Council
COOCHIN,4310,QLD,Scenic Rim Regional Council
COOCHIN CREEK,4519,QLD,Sunshine Coast Regional Council
COOKTOWN,4895,QLD,Cook Shire Council
COOLABUNIA,4610,QLD,South Burnett Regional Council
COOLANGATTA,4225,QLD,Gold Coast City
COOLOOLA,4580,QLD,Gympie Regional Council
COOLOOLA COVE,4580,QLD,Gympie Regional Council
COOLOOLABIN,4560,QLD,Sunshine Coast Regional Council
COOLUM,4573,NULL,Sunshine Coast Regional Council
COOLUM BEACH,4573,QLD,Sunshine Coast Regional Council
COOMBABAH,4216,QLD,Gold Coast City
COOMERA,4209,QLD,Gold Coast City
COOMINYA,4311,QLD,Somerset Regional Council
COONABARABRAN,2357,NSW,Out Of State
COONAMBLE,2829,NSW,Out Of State
COONOWRIN CREEK,,NULL,Sunshine Coast Regional Council
COOPERS CREEK,5731,SA,Out Of State
COOPERS PLAINS,4108,QLD,Brisbane City Council
COORAN,4569,QLD,Sunshine Coast Regional Council
COOROIBAH,4565,QLD,Sunshine Coast Regional Council
COOROY,4563,QLD,Sunshine Coast Regional Council
COORPAROO,4151,QLD,Brisbane City Council
COOTHARABA,4565,QLD,Sunshine Coast Regional Council
COOYAR,4402,QLD,Toowoomba Regional Council
COPPABELLA,4741,QLD,Isaac Regional Council
CORAKI,2471,NSW,Out Of State
CORINDA,4075,QLD,Brisbane City Council
CORNUBIA,4130,QLD,Logan City Council
COTTON TREE,4558,QLD,Sunshine Coast Regional Council
COVERTY,4613,QLD,South Burnett Regional Council
CRAIGSLEA,,NULL,Brisbane City Council
CREEKSIDE,,NULL,Sunshine Coast Regional Council
CREEKSIDE; CALOUNDRA,,NULL,Sunshine Coast Regional Council
CRESTMEAD,4132,QLD,Logan City Council
CROHAMHURST,4519,QLD,Sunshine Coast Regional Council
CROSSDALE,4312,QLD,Somerset Regional Council
CROWS NEST,4355,QLD,Toowoomba Regional Council
CROW'S NEST,,NULL,Toowoomba Regional Council
CRYSTAL WATERS,4552,QLD,Sunshine Coast Regional Council
CUNNAMULLA,4490,QLD,Paroo Shire Council
CURRA,4570,QLD,Gympie Regional Council
CURRAMORE,4552,QLD,Sunshine Coast Regional Council
CURRIMUNDI,4551,QLD,Sunshine Coast Regional Council
CURRUMBIN,4223,QLD,Gold Coast City
CURRUMBIN VALLEY,4223,QLD,Gold Coast City
CURRUMBIN WATERS,4223,QLD,Gold Coast City
CURTIS ISLAND,4680,QLD,Gladstone Regional Council
CUSHNIE,4608,QLD,South Burnett Regional Council
D'AGUILAR,4514,NULL,Moreton Bay Regional Council
DAISY HILL,4127,QLD,Logan City Council
DAKABIN,4503,QLD,Moreton Bay Regional Council
DALBY,4405,QLD,Dalby Regional Council
DALVEEN,4374,QLD,Sunshine Coast Regional Council
DARRA,4076,QLD,Brisbane City Council
DAYBORO,4521,QLD,Moreton Bay Regional Council
DEAGON,4017,QLD,Brisbane City Council
DECEPTION BAY,4508,QLD,Moreton Bay Regional Council
DEEPWATER,4674,QLD,Sunshine Coast Regional Council
DELANEYS CREEK,4514,QLD,Moreton Bay Regional Council
DELANEY'S CREEK,4514,QLD,Moreton Bay Regional Council
DIAMOND HEAD,2443,NSW,Out Of State
DIAMOND VALLEY,4553,QLD,Sunshine Coast Regional Council
DICKY BEACH,4551,QLD,Sunshine Coast Regional Council
DIDDILIBAH,,NULL,Sunshine Coast Regional Council
DIDDILLIBAH,4559,QLD,Sunshine Coast Regional Council
DIDILLIBAH,,NULL,Sunshine Coast Regional Council
DILLI VILLAGE,,NULL,Fraser Coast Regional Council
DINMORE,4303,QLD,Scenic Rim Regional Council
DIRRANBANDI,4486,QLD,Balonne Shire Council
DOLLS CREEK,,NULL,Sunshine Coast Regional Council
DONNYBROOK,4510,QLD,Moreton Bay Regional Council
DOOLANDELLA,4077,QLD,Brisbane City Council
DOONAN,4562,QLD,Sunshine Coast Regional Council
DOONYBROOK,4510,QLD,Moreton Bay Regional Council
DORROUGBY,,NULL,Out Of State
DOUBLE ISLAND,,NULL,Gympie Regional Council
DOUBLE ISLAND POINT,,NULL,Gympie Regional Council
DRAKE,2469,NSW,Out Of State
DRAPER,4520,QLD,Moreton Bay Regional Council
DREWVALE,4116,QLD,Brisbane City Council
DULONG,4560,QLD,Sunshine Coast Regional Council
DUNDABURRA,,NULL,Gympie Regional Council
DUNDAS,4306,QLD,Somerset Regional Council
DUNDOWRAN,4655,QLD,Fraser Coast Regional Council
DUNDOWRAN BEACH,4655,QLD,Fraser Coast Regional Council
DUNGARIMBA,,NULL,Out Of State
DUNOON,2480,NSW,Out Of State
DUNWICH,4183,QLD,Redland Shire Council
DURANBAH,2487,NSW,Out Of State
DURONG SOUTH,4610,QLD,South Burnett Regional Council
DUTTON PARK,4102,QLD,Brisbane City Council
EAGLE FARM,4009,QLD,Brisbane City Council
EAGLE HEIGHTS,4271,QLD,Scenic Rim Regional Council
EAGLE JUNCTION,,NULL,Brisbane City Council
EAGLEBY,4207,QLD,Logan City Council
EARWAHVALE,,NULL,Sunshine Coast Regional Council
EAST BALLINA,2478,NSW,Out Of State
EAST BRISBANE,4169,QLD,Brisbane City Council
EAST LISMORE,2480,NSW,Lismore
EATONS HILL,4037,QLD,Moreton Bay Regional Council
EATON'S HILL,4037,QLD,Moreton Bay Regional Council
EBENEZER,4340,QLD,Scenic Rim Regional Council
EDENS LANDING,4207,QLD,Logan City Council
EEL CREEK,,NULL,Gympie Regional Council
EERWAH VALE,4562,QLD,Sunshine Coast Regional Council
EIDSVOLD,4627,QLD,North Burnett Regional Council
EIGHT MILE PLAINS,4113,QLD,Brisbane City Council
ELAMAN CREEK,4552,QLD,Sunshine Coast Regional Council
ELANORA,4221,QLD,Gold Coast City
ELIMBA,,NULL,Moreton Bay Regional Council
ELIMBAH,4516,QLD,Moreton Bay Regional Council
ELLESMERE,4610,QLD,South Burnett Regional Council
ELTHAM,3095,VIC,Out Of State
EMERALD,4720,QLD,Central Highlands Regional Council
EMU CREEK,4355,QLD,Sunshine Coast Regional Council
ENOGGERA,4051,QLD,Brisbane City Council
EROMANGA,4480,QLD,Quilpie Shire Council
ESK,4312,QLD,Somerset Regional Council
ETON,4741,QLD,Mackay Regional Council
EUDLO,4554,QLD,Sunshine Coast Regional Council
EULO,4491,QLD,Paroo Shire Council
EUMUNDI,4562,QLD,Sunshine Coast Regional Council
EUNGELLA,2484,NSW,Out Of State
EUREKA,4660,QLD,Lismore
EURONG,4581,QLD,Fraser Coast Regional Council
EVANS HEAD,2473,NSW,Out Of State
EVERTON HILLS,4053,QLD,Moreton Bay Regional Council
EVERTON PARK,4053,QLD,Brisbane City Council
FAIRFIELD,4103,QLD,Brisbane City Council
FEDERAL,4568,QLD,Sunshine Coast Regional Council
FELTON,4358,QLD,Toowoomba Regional Council
FERNVALE,4306,QLD,Somerset Regional Council
FERNY GROVE,4055,QLD,Brisbane City Council
FERNY HILLS,4055,QLD,Brisbane City Council
FIG TREE POCKET,4069,QLD,Brisbane City Council
FISHERMAN ISLANDS,,NULL,Brisbane City Council
FISHMAN ISLAND,,NULL,Brisbane City Council
FITZGIBBON,4018,QLD,Brisbane City Council
FLAGSTONE,4344,QLD,Logan City Council
FLAXTON,4560,QLD,Sunshine Coast Regional Council
FLINDERS BEACH,,NULL,Redland Shire Council
FOREST GLEN,4556,QLD,Sunshine Coast Regional Council
FOREST HILL,4342,QLD,Lockyer Valley Regional Council
FOREST LAKE,4078,QLD,Brisbane City Council
FORESTDALE,4118,QLD,Logan City Council
FORTITUDE VALLEY,4006,QLD,Brisbane City Council
FRASER ISLAND,4581,QLD,Fraser Coast Regional Council
FRENCH'S FOREST,,NULL,Moreton Bay Regional Council
GAILES,4300,QLD,Scenic Rim Regional Council
GAINSBOROUGH PARK,,NULL,Brisbane City Council
GATTON,4343,QLD,Lockyer Valley Regional Council
GATTON COLLEGE,4345,QLD,Lockyer Valley Regional Council
GAVEN,4211,QLD,Gold Coast City
GAVIN,,NULL,Gold Coast City
GAYNDAH,4625,QLD,North Burnett Regional Council
GAYTHORNE,4051,QLD,Brisbane City Council
GEEBUNG,4034,QLD,Brisbane City Council
GEHAM,4352,QLD,Toowoomba Regional Council
GHEERULLA,4574,QLD,Sunshine Coast Regional Council
GILLDORA,4570,QLD,Gympie Regional Council
GILSTON,4211,QLD,Gold Coast City
GIN GIN,4671,QLD,Bundaberg Regional Council
GLADSTONE,4680,QLD,Gladstone Regional Council
GLAMORGAN VALE,4306,QLD,Somerset Regional Council
GLASS HOUSE MOUNTAINS,4518,QLD,Sunshine Coast Regional Council
GLASSHOUSE MOUNTAINS,4518,QLD,Sunshine Coast Regional Council
GLASTONBURY,4570,QLD,Gympie Regional Council
GLENDON,2330,NSW,Southern Downs Regional Council
GLENDORF,4650,QLD,Fraser Coast Regional Council
GLENEAGLE,4285,QLD,Scenic Rim Regional Council
GLENFIELDS,,NULL,Sunshine Coast Regional Council
GLENHAVEN,2156,NSW,Out Of State
GLENMORGAN,4423,QLD,Dalby Regional Council
GLENVIEW,4553,QLD,Sunshine Coast Regional Council
GLENWOOD,4570,QLD,Bundaberg Regional Council
GODWIN BEACH,4511,QLD,Moreton Bay Regional Council
GOLD COAST,,NULL,Gold Coast City
GOLDEN BEACH,4551,QLD,Sunshine Coast Regional Council
GOODGER,4610,QLD,South Burnett Regional Council
GOODNA,4300,QLD,Scenic Rim Regional Council
GOOGENGERRY,,NULL,Out Of State
GOOMBOORIAN,4570,QLD,Gympie Regional Council
GOOMBUNGEE,4354,QLD,Toowoomba Regional Council
GOOMERI,4601,QLD,Gympie Regional Council
GOONDIWINDI,4390,QLD,Goondiwindi Regional Council
GOONELLABAH,2480,NSW,Out Of State
GOONENGERRY,2482,NSW,Out Of State
GORDON PARK,4031,QLD,Brisbane City Council
GORDONBROOK,4610,QLD,South Burnett Regional Council
GOSFORD,2250,NSW,Out Of State
GRACEMERE,4702,QLD,Rockhampton Regional Council
GRACEVILLE,4075,QLD,Brisbane City Council
GRAFTON,2460,NSW,Byron 
GRAMVILLE,,NULL,Fraser Coast Regional Council
GRANDCHESTER,4340,QLD,Scenic Rim Regional Council
GRANGE,4051,QLD,Brisbane City Council
GRANTHAM,4347,QLD,Lockyer Valley Regional Council
GREENBANK,4124,QLD,Logan City Council
GREENFIELDS,6210,WA,Out Of State
GREENMOUNT,4751,QLD,Toowoomba Regional Council
GREENMOUNT,4751,QLD,Mackay Regional Council
GREENSLOPES,4120,QLD,Brisbane City Council
GREGORS CREEK,4313,QLD,Somerset Regional Council
GREGSON PLACE,,NULL,Sunshine Coast Regional Council
GRETA,3675,VIC,Bundaberg Regional Council
GRIFFIN,4503,QLD,Moreton Bay Regional Council
GROOMSVILLE,4352,QLD,Toowoomba Regional Council
GROVELY,,NULL,Brisbane City Council
GUANABA,4210,QLD,Gold Coast City
GUMDALE,4154,QLD,Brisbane City Council
GUNABA,,NULL,Logan City Council
GUNALDA,4570,QLD,Fraser Coast Regional Council
GUNDAGAI,2722,NSW,Out Of State
GUNDARIMBA,2480,NSW,Out Of State
GUNDIAH,4650,QLD,Fraser Coast Regional Council
GYMPIE,4570,QLD,Gympie Regional Council
HADEN,4353,QLD,Toowoomba Regional Council
HAIGSLEA,4306,QLD,Somerset Regional Council
HAMILTON,4007,QLD,Brisbane City Council
HAMPTON,4352,QLD,Toowoomba Regional Council
HANNAFORD,4406,QLD,Chinchilla Shire Council
HAPPY VALLEY (FRASER ISLAND),,NULL,Fraser Coast Regional Council
HARLIN,4306,QLD,Somerset Regional Council
HARPER CREEK,4552,QLD,Moreton Bay Regional Council
HATTON VALE,4341,QLD,Lockyer Valley Regional Council
HAWTHORN,5062,SA,Out Of State
HAWTHORNE,4171,QLD,Brisbane City Council
HAZELDEAN,4515,QLD,Somerset Regional Council
HEATHWOOD,4110,QLD,Redland Shire Council
HELENSVALE,4212,QLD,Gold Coast City
HELIDON,4344,QLD,Lockyer Valley Regional Council
HEMMANT,4174,QLD,Brisbane City Council
HENDRA,4011,QLD,Brisbane City Council
HERITAGE PARK,4118,QLD,Logan City Council
HERSTON,4006,QLD,Brisbane City Council
HERVEY BAY,4655,QLD,Fraser Coast Regional Council
HIGHFIELD,,NULL,Toowoomba Regional Council
HIGHFIELDS,4352,QLD,Toowoomba Regional Council
HIGHFIELDS,4352,QLD,Toowoomba Regional Council
HIGHGATE HILL,4101,QLD,Brisbane City Council
HIGHOAK,,NULL,Moreton Bay Regional Council
HIGHVALE,4520,QLD,Moreton Bay Regional Council
HIGHWORTH,4560,QLD,Sunshine Coast Regional Council
HILL VIEW,,NULL,Logan City Council
HILLCREST,4118,QLD,Logan City Council
HILLVIEW,4285,QLD,Scenic Rim Regional Council
HISTORICAL VILLAGE,,NULL,Moreton Bay Regional Council
HIVESVILLE,4612,QLD,South Burnett Regional Council
HOBTON PARADE,,NULL,Sunshine Coast Regional Council
HOLLAND PARK,4121,QLD,Brisbane City Council
HOLMVIEW,4207,QLD,Logan City Council
HOPE ISLAND,4212,QLD,Gold Coast City
HORNSBY,2077,NSW,Out Of State
HORSESHOE CK,,NULL,Kyogle
HOWARD,4659,QLD,Fraser Coast Regional Council
HUNCHY,4555,QLD,Sunshine Coast Regional Council
HUOONBROOK,,NULL,Lismore
HUSSY CREEK,,NULL,Sunshine Coast Regional Council
ILKEY,,NULL,Sunshine Coast Regional Council
ILKLEY,4554,QLD,Sunshine Coast Regional Council
ILLANGIE,,NULL,Somerset Regional Council
IMAGE FLAT,4560,QLD,Gympie Regional Council
IMBIL,4570,QLD,Gympie Regional Council
INALA,4077,QLD,Brisbane City Council
INDOOROOPILLY,4068,QLD,Brisbane City Council
INGLEWOOD,4387,QLD,Goondiwindi Regional Council
INJUNE,4454,QLD,Roma Regional Council
INNAMINCKA,5731,SA,Out Of State
INNISPLAIN,4285,QLD,Scenic Rim Regional Council
INSKIP POINT,,NULL,Gympie Regional Council
INVERELL,2360,NSW,Out Of State
INVERLAW,4610,QLD,South Burnett Regional Council
IPSWICH,4305,QLD,Ipswich City
IRVINGDALE,4404,QLD,Dalby Regional Council
IVADALE LAKES,,NULL,Sunshine Coast Regional Council
JABIRU ISLAND,,NULL,Logan City Council
JACOBS WELL,4208,QLD,Gold Coast City
JACOB'S WELL,,NULL,Gold Coast City
JAMBOREE HEIGHTS,4074,QLD,Brisbane City Council
JANDOWAE,4410,QLD,Dalby Regional Council
JANDOWIE,,NULL,South Burnett Regional Council
JERICO,,NULL,Central Highlands Regional Council
JIGGI,2480,NSW,Lismore
JIMBOOMBA,4280,QLD,Logan City Council
JIMBOUR,4406,QLD,Dalby Regional Council
JIMNA,4515,QLD,Somerset Regional Council
JIMNOOMBA,,NULL,Logan City Council
JINDALEE,4074,QLD,Brisbane City Council
JONDARYAN,4403,QLD,Toowoomba Regional Council
JOYNER,4500,QLD,Moreton Bay Regional Council
JUBILEE POCKET,4802,QLD,Whitsunday Regional Council
KAIMKILLENBUN,4406,QLD,Dalby Regional Council
KALANGUR,,NULL,Moreton Bay Regional Council
KALBAR,4309,QLD,Scenic Rim Regional Council
KALINGA,,NULL,Brisbane City Council
KALLANGUR,4503,QLD,Moreton Bay Regional Council
KAMKILLENBUN,,NULL,Dalby Regional Council
KANDANGA,4570,QLD,Gympie Regional Council
KANGAROO PARK,,NULL,Logan City Council
KANGAROO POINT,4169,QLD,Brisbane City Council
KANKALUBIN,,NULL,Toowoomba Regional Council
KARAMA DOWNS,,NULL,Brisbane City Council
KARANA DOWNS,4306,QLD,Brisbane City Council
KARARA,4352,QLD,Sunshine Coast Regional Council
KARAWATHA,4117,QLD,Brisbane City Council
KAWANA,4701,QLD,Sunshine Coast Regional Council
KAWANA BEACH,,NULL,Sunshine Coast Regional Council
KAWANA ISLAND,4575,NULL,Sunshine Coast Regional Council
KAWANA WATERS,4575,NULL,Sunshine Coast Regional Council
KEDRON,4031,QLD,Brisbane City Council
KEDRON BROOK,,NULL,Brisbane City Council
KEERONG,,NULL,Lismore
KELINGOR,,NULL,Moreton Bay Regional Council
KELVIN GROVE,4059,QLD,Brisbane City Council
KELVINHAUGH,4401,QLD,Toowoomba Regional Council
KENILWORTH,4574,QLD,Sunshine Coast Regional Council
KENMORE,4069,QLD,Brisbane City Council
KENMORE HILLS,4069,QLD,Brisbane City Council
KENNILWORTH,,NULL,Sunshine Coast Regional Council
KENSINGTON GROVE,4341,QLD,Lockyer Valley Regional Council
KEPERA,,NULL,Brisbane City Council
KEPERRA,4054,QLD,Brisbane City Council
KERRY,4285,QLD,Scenic Rim Regional Council
KHOLO,4306,QLD,Brisbane City Council
KIAMBA,4560,QLD,Sunshine Coast Regional Council
KIDAMAN CREEK,4574,QLD,Sunshine Coast Regional Council
KIEL MOUNTAIN,,NULL,Sunshine Coast Regional Council
KIELS MOUNTAIN,4559,QLD,Sunshine Coast Regional Council
KIELS MT,,NULL,Sunshine Coast Regional Council
KIHLSTOH,,NULL,Logan City Council
KILCOY,4515,QLD,Somerset Regional Council
KILKIVAN,4600,QLD,Gympie Regional Council
KIMBERLEY PARK,,NULL,Logan City Council
KIN KIN,4571,QLD,Sunshine Coast Regional Council
KING SCRUB,4521,QLD,Moreton Bay Regional Council
KINGAROY,4610,QLD,South Burnett Regional Council
KINGS BEACH,4551,QLD,Sunshine Coast Regional Council
KINGSCLIFF,2487,NSW,Out Of State
KINGSHOLME,4208,QLD,Gold Coast City
KINGSTHORPE,4400,QLD,Toowoomba Regional Council
KINGSTON,4114,QLD,Logan City Council
KIPPA RING,,NULL,Moreton Bay Regional Council
KIPPA-RING,4021,QLD,Moreton Bay Regional Council
KIREELPA,,NULL,Sunshine Coast Regional Council
KITTAMAN CREEK,,NULL,Sunshine Coast Regional Council
KLEINTON,4352,QLD,Toowoomba Regional Council
KNOCKROW,2479,NSW,Out Of State
KOBBLE CREEK,4520,QLD,Moreton Bay Regional Council
KOGAN,4406,QLD,Chinchilla Shire Council
KONDALILLA,,NULL,Sunshine Coast Regional Council
KONDALILLA FALLS,,NULL,Sunshine Coast Regional Council
KOORALBYN,4285,QLD,Scenic Rim Regional Council
KULANGOOR,4560,QLD,Sunshine Coast Regional Council
KULUIN,4558,QLD,Sunshine Coast Regional Council
KULVIN,,NULL,Gympie Regional Council
KUMBIA,4610,QLD,South Burnett Regional Council
KUNDA PARK,4556,QLD,Sunshine Coast Regional Council
KUNGHUR,2484,NSW,Out Of State
KURABY,4112,QLD,Brisbane City Council
KUREELPA,4560,QLD,Sunshine Coast Regional Council
KURILPA,,NULL,Brisbane City Council
KURWONGBAH,4503,QLD,Moreton Bay Regional Council
KYBONG,4570,QLD,Gympie Regional Council
KYOGLE,2474,NSW,Out Of State
LABRADOR,4215,QLD,Gold Coast City
LACEYS CREEK,4521,QLD,Moreton Bay Regional Council
LAIDLEY,4341,QLD,Lockyer Valley Regional Council
LAKE BORUMBA,4570,QLD,Sunshine Coast Regional Council
LAKE CLARENDON,4343,QLD,Lockyer Valley Regional Council
LAKE COOROIBAH,,NULL,Sunshine Coast Regional Council
LAKE MACDONALD,4563,QLD,Sunshine Coast Regional Council
LAKE MANCHESTER,4306,QLD,Brisbane City Council
LAMB ISLAND,4184,QLD,Redland Shire Council
LAMINGTON,4285,QLD,Scenic Rim Regional Council
LAMINGTON NATIONAL PARK,4275,QLD,Scenic Rim Regional Council
LANAWA,,NULL,Sunshine Coast Regional Council
LANDERS SHOOT,4555,QLD,Sunshine Coast Regional Council
LANDSBOROUGH,4550,QLD,Sunshine Coast Regional Council
LANEFIELD,4340,QLD,Scenic Rim Regional Council
LARAVALE,4285,QLD,Logan City Council
LAWNTON,4501,QLD,Moreton Bay Regional Council
LEYBURN,4365,QLD,Sunshine Coast Regional Council
LIGHTNING RIDGE,2834,NSW,Out Of State
LINDENDALE,2480,NSW,Lismore
LINDUM,,NULL,Brisbane City Council
LINENDALE,,NULL,Out Of State
LINVILLE,4306,QLD,Somerset Regional Council
LISMORE,3324,VIC,Lismore
LISMORE HEIGHTS,2480,NSW,Out Of State
LITTLE MOUNTAIN,4551,QLD,Sunshine Coast Regional Council
LITTLE MOUNTIAN,,NULL,Sunshine Coast Regional Council
LITTLE MTN,,NULL,Sunshine Coast Regional Council
LOCKYER,4344,QLD,Lockyer Valley Regional Council
LOCKYER VALLEY,,NULL,Somerset Regional Council
LOCKYER WATERS,4311,QLD,Lockyer Valley Regional Council
LOGAN,3475,VIC,Logan City Council
LOGAN CENTRAL,4114,QLD,Logan City Council
LOGAN CITY,,NULL,Logan City Council
LOGAN VILLAGE,4207,QLD,Logan City Council
LOGANHOLME,4129,QLD,Logan City Council
LOGANLEA,4131,QLD,Logan City Council
LONE PINE,,NULL,Brisbane City Council
LONGREACH,4730,QLD,Longreach Regional Council
LOTA,4179,QLD,Brisbane City Council
LOWER BEECHMONT,4211,QLD,Gold Coast City
LOWER MOUNT WALKER,4340,QLD,Scenic Rim Regional Council
LOWER TENTHILL,4343,QLD,Lockyer Valley Regional Council
LOWER WONGA,4570,QLD,Gympie Regional Council
LOWOOD,4311,QLD,Somerset Regional Council
LUMDALE,,NULL,Sunshine Coast Regional Council
LUSCOMBE,4207,QLD,Gold Coast City
LUTWYCHE,4030,QLD,Brisbane City Council
LYTTON,4178,QLD,Brisbane City Council
MAAROOM,4650,QLD,Fraser Coast Regional Council
MACGREGOR,4109,QLD,Brisbane City Council
MACKAY,4740,QLD,Mackay Regional Council
MACKENZIE,4702,QLD,Brisbane City Council
MACLAGAN,4352,QLD,Toowoomba Regional Council
MACLEAN,2463,NSW,Logan City Council
MACLEAY ISLAND,4184,QLD,Redland Shire Council
MAIDENWELL,4615,QLD,South Burnett Regional Council
MALENY,4552,QLD,Sunshine Coast Regional Council
MANFIELD,,NULL,Brisbane City Council
MANGO HILL,4509,QLD,Moreton Bay Regional Council
MANLY,4179,QLD,Brisbane City Council
MANLY WEST,4179,QLD,Brisbane City Council
MANNUMBAR,,NULL,Somerset Regional Council
MANSFIELD,4122,QLD,Brisbane City Council
MANYUNG,4605,QLD,Gympie Regional Council
MAPLETON,4560,QLD,Sunshine Coast Regional Council
MARACOONDA,,NULL,Moreton Bay Regional Council
MARAYONG,2148,NSW,Out Of State
MARCOOLA,4564,QLD,Sunshine Coast Regional Council
MARCOOLA BEACH,,NULL,Sunshine Coast Regional Council
MARCOOLS,,NULL,Sunshine Coast Regional Council
MARCUS BEACH,4573,QLD,Sunshine Coast Regional Council
MARGATE,4019,QLD,Moreton Bay Regional Council
MARGATE BEACH,4019,QLD,Moreton Bay Regional Council
MARINA,,NULL,Moreton Bay Regional Council
MARINER,,NULL,Moreton Bay Regional Council
MARLBOROUGH,4705,QLD,Rockhampton Regional Council
MAROM CREEK,2480,NSW,Out Of State
MAROOCHY,,NULL,Sunshine Coast Regional Council
MAROOCHY RIVER,4561,QLD,Sunshine Coast Regional Council
MAROOCHYDORE,4558,QLD,Sunshine Coast Regional Council
MAROOCHYDORE BC,4558,QLD,Sunshine Coast Regional Council
MAROON,4310,QLD,Roma Regional Council
MARSDEN,4132,QLD,Brisbane City Council
MARSHLANDS,4611,QLD,South Burnett Regional Council
MARY RIVER,,NULL,Gympie Regional Council
MARYBOROUGH,4650,QLD,Fraser Coast Regional Council
MAUDSLAND,4210,QLD,Gold Coast City
MCDOWALL,4053,QLD,Brisbane City Council
MCDOWELL,,NULL,Brisbane City Council
MCKEELS HILL,,NULL,Lismore
MCKEES HILL,2480,NSW,Lismore
MCKELLS HILL,,NULL,Lismore
MCKINLAY,4823,QLD,McKinlay Shire Council
MCLEANS RIDGES,2480,NSW,Richmond Shire Council
MEADOWBROOK,4131,QLD,Logan City Council
MEANDARRA,4422,QLD,Dalby Regional Council
MEERCHAUM VALE,,NULL,Out Of State
MEERSHAUMVALE,,NULL,Out Of State
MELBOURNE,8399,VIC,Out Of State
MELDALE,4510,QLD,Moreton Bay Regional Council
MEMERAMBI,4610,QLD,South Burnett Regional Council
MERIDAN PLAINS,4551,QLD,Sunshine Coast Regional Council
MERIDIAN PLAINS,,NULL,Sunshine Coast Regional Council
MERIMIST WAY,,NULL,Sunshine Coast Regional Council
MERINGANDAN,4352,QLD,Toowoomba Regional Council
MERMAID WATERS,4218,QLD,Gold Coast City
MIAMI,4220,QLD,Gold Coast City
MICHELSTON,,NULL,Brisbane City Council
MIDDLE PARK,4074,QLD,Brisbane City Council
MIDDLEMOUNT,4746,QLD,Isaac Regional Council
MILES,4415,QLD,Dalby Regional Council
MILLMERRAN,4357,QLD,Toowoomba Regional Council
MILTON,4064,QLD,Brisbane City Council
MINDEN,4311,QLD,Somerset Regional Council
MINYAMA,4575,QLD,Sunshine Coast Regional Council
MINYAMA WATERS,,NULL,Sunshine Coast Regional Council
MIRIAM VALE,4677,QLD,Gladstone Regional Council
MITCHELL,4465,QLD,Roma Regional Council
MITCHELTON,4053,QLD,Brisbane City Council
MODANVILLE,2480,NSW,Out Of State
MOFFAT,,NULL,Sunshine Coast Regional Council
MOFFAT BEACH,4551,QLD,Sunshine Coast Regional Council
MOFFATDALE,4605,QLD,South Burnett Regional Council
MOFFATT BEACH,,NULL,Sunshine Coast Regional Council
MOGGILL,4070,QLD,Brisbane City Council
MON RE POS,,NULL,Bundaberg Regional Council
MONALTRIE,2480,NSW,Out Of State
MONDURE,4611,QLD,South Burnett Regional Council
MONS,4556,QLD,Sunshine Coast Regional Council
MONTO,4630,QLD,North Burnett Regional Council
MONTVILLE,4560,QLD,Sunshine Coast Regional Council
MOODLO,,NULL,Moreton Bay Regional Council
MOODLU,4510,QLD,Moreton Bay Regional Council
MOODOONER,4605,QLD,Gympie Regional Council
MOOGERAH,4309,QLD,Scenic Rim Regional Council
MOOLOO,4570,QLD,Gympie Regional Council
MOOLOOLA,,NULL,Sunshine Coast Regional Council
MOOLOOLABA,4557,QLD,Sunshine Coast Regional Council
MOOLOOLABAH,,NULL,Sunshine Coast Regional Council
MOOLOOLAH,4553,QLD,Sunshine Coast Regional Council
MOOLOOLAH MEADOWS,,NULL,Sunshine Coast Regional Council
MOOLOOLAH VALLEY,4553,QLD,Sunshine Coast Regional Council
MOOLOOOLAH,,NULL,Sunshine Coast Regional Council
MOONIE,4406,QLD,Dalby Regional Council
MOOR,,NULL,Moreton Bay Regional Council
MOORE,4306,QLD,Somerset Regional Council
MOORE PARK,2021,NSW,Bundaberg Regional Council
MOORINA,4506,QLD,Moreton Bay Regional Council
MOOROOKA,4105,QLD,Brisbane City Council
MORANBAH,4744,QLD,Isaac Regional Council
MORAYFIELD,4506,QLD,Moreton Bay Regional Council
MOREE,2400,NSW,Out Of State
MORETON BAY,,NULL,Moreton Bay Regional Council
MORETON ISLAND,4025,QLD,Moreton Bay Regional Council
MORNINGSIDE,4170,QLD,Brisbane City Council
MORVEN,4468,QLD,Murweh Shire Council
MOSQUITO ISLAND,,NULL,Moreton Bay Regional Council
MOTHAR MOUNTAIN,4570,QLD,Gympie Regional Council
MOTHER MTN,,NULL,Gympie Regional Council
MOUDS,,NULL,Logan City Council
MOUNT ARCHER,4701,QLD,Moreton Bay Regional Council
MOUNT ARCHER (KILCOY),,NULL,Somerset Regional Council
MOUNT BARNEY,4287,QLD,Beaudesert Shire Council
MOUNT BERRYMAN,4341,QLD,Lockyer Valley Regional Council
MOUNT BINGA,4306,QLD,Toowoomba Regional Council
MOUNT COOLUM,4573,QLD,Sunshine Coast Regional Council
MOUNT COOTHA,,NULL,Brisbane City Council
MOUNT COTTON,4165,QLD,Redland Shire Council
MOUNT CROSBY,4306,QLD,Brisbane City Council
MOUNT DELANEY,4514,QLD,Moreton Bay Regional Council
MOUNT FORBES,4340,QLD,Scenic Rim Regional Council
MOUNT GLORIOUS,4520,QLD,Moreton Bay Regional Council
MOUNT GRAVATT,4122,QLD,Brisbane City Council
MOUNT GRAVATT EAST,4122,QLD,Brisbane City Council
MOUNT HALLEN,4312,QLD,Somerset Regional Council
MOUNT KILCOY,4515,QLD,Somerset Regional Council
MOUNT LARCOM,4695,QLD,Gladstone Regional Council
MOUNT LOFTY,4350,QLD,Toowoomba Regional Council
MOUNT MEE,4521,QLD,Moreton Bay Regional Council
MOUNT MELLUM,4550,QLD,Sunshine Coast Regional Council
MOUNT NATHAN,4211,QLD,Gold Coast City
MOUNT NEBO,4520,QLD,Moreton Bay Regional Council
MOUNT OMMANEY,4074,QLD,Brisbane City Council
MOUNT PERRY,4671,QLD,North Burnett Regional Council
MOUNT PLEASANT (PINE RIVERS),,NULL,Moreton Bay Regional Council
MOUNT SAMSON,4520,QLD,Moreton Bay Regional Council
MOUNT SYLVIA,4343,QLD,Lockyer Valley Regional Council
MOUNT TAMBORINE,4272,QLD,Scenic Rim Regional Council
MOUNT TYSON,4356,QLD,Toowoomba Regional Council
MOUNT WALKER,4340,QLD,Scenic Rim Regional Council
MOUNT WARREN PARK,4207,QLD,Logan City Council
MOUNT WHITESTONE,4347,QLD,Lockyer Valley Regional Council
MOUNTAIN CK,,NULL,Sunshine Coast Regional Council
MOUNTAIN CREEK,4557,QLD,Sunshine Coast Regional Council
MOURA,4718,QLD,Banana Shire Council
MT BEERWAH,,NULL,Sunshine Coast Regional Council
MT COOLUM,,NULL,Sunshine Coast Regional Council
MT COOTHA,,NULL,Brisbane City Council
MT COTTON,,NULL,Logan City Council
MT CREEK,,NULL,Sunshine Coast Regional Council
MT CROSBY,,NULL,Brisbane City Council
MT GRAVATT,,NULL,Brisbane City Council
MT GUN GUN,,NULL,Sunshine Coast Regional Council
MT KILCOY,,NULL,Somerset Regional Council
MT MEE,,NULL,Moreton Bay Regional Council
MT MELLUM,,NULL,Sunshine Coast Regional Council
MT MORGAN,,NULL,Rockhampton Regional Council
MT MULLUM,,NULL,Moreton Bay Regional Council
MT NATHAN,,NULL,Logan City Council
MT NEBO,,NULL,Brisbane City Council
MT PERRY,,NULL,Bundaberg Regional Council
MT PLEASANT,,NULL,Moreton Bay Regional Council
MT TAMBARINE,,NULL,Logan City Council
MT TAMBORINE,,NULL,Logan City Council
MT TOP,,NULL,Lismore
MT WALKER,,NULL,Somerset Regional Council
MT WARNING,,NULL,Lismore
MT WARREN PARK,,NULL,Logan City Council
MT WARROW,,NULL,Logan City Council
MT. CREEK,,NULL,Sunshine Coast Regional Council
MT. MELLUM,,NULL,Sunshine Coast Regional Council
MTN CREEK,,NULL,Sunshine Coast Regional Council
MUCKADILLA,4461,QLD,Roma Regional Council
MUDGEERABA,4213,QLD,Gold Coast City
MUDGERABA,,NULL,Logan City Council
MUDJIMBA,4564,QLD,Sunshine Coast Regional Council
MUDJIMBA BEACH,,NULL,Sunshine Coast Regional Council
MUDJUMBA,,NULL,Sunshine Coast Regional Council
MULLUMBIMBY,2482,NSW,Out Of State
MUNDOOLAN,,NULL,Logan City Council
MUNDOOLUN,4285,QLD,Logan City Council
MUNDUBBERA,4626,QLD,North Burnett Regional Council
MUNGAR,4650,QLD,Fraser Coast Regional Council
MUNNIBIN,,NULL,Moreton Bay Regional Council
MUNRUBEEN,,NULL,Logan City Council
MUNRUBEN,4125,QLD,Logan City Council
MURARRIE,4172,QLD,Brisbane City Council
MURGON,4605,QLD,South Burnett Regional Council
MURPHYS CREEK,4352,QLD,Lockyer Valley Regional Council
MURRARIE,,NULL,Brisbane City Council
MURRIMBA,,NULL,Moreton Bay Regional Council
MURRUMBA DOWNS,4503,QLD,Moreton Bay Regional Council
MURWILLUMBAH,2484,NSW,Out Of State
MYAREE,6154,WA,Sunshine Coast Regional Council
MYOCUM,2481,NSW,Out Of State
NAMBOUR,4560,QLD,Sunshine Coast Regional Council
NAMBOUR HEIGHTS,,NULL,Sunshine Coast Regional Council
NANANGO,4615,QLD,South Burnett Regional Council
NANANGO - GOOMERI,,NULL,Somerset Regional Council
NANGRAM,4416,QLD,Western Downs Regional Council
NARANGBA,4504,QLD,Moreton Bay Regional Council
NARROGIN,6312,WA,Logan City Council
NATHAN,4111,QLD,Brisbane City Council
NATURAL BRIDGE,4211,QLD,Gold Coast City
NEBO,4742,QLD,Mackay Regional Council
NELLIGEN,2356,NSW,Out Of State
NERANG,4211,QLD,Gold Coast City
NEURUM,4514,QLD,Moreton Bay Regional Council
NEW BEITH,4124,QLD,Logan City Council
NEW FARM,4005,QLD,Brisbane City Council
NEWFARM,,NULL,Brisbane City Council
NEWMARKET,4051,QLD,Brisbane City Council
NEWPORT,4020,QLD,Moreton Bay Regional Council
NEWRYBAR,2479,NSW,Byron 
NEWSTEAD,4006,QLD,Brisbane City Council
NEWTOWN,4350,QLD,Brisbane City Council
NIMBIN,2480,NSW,Out Of State
NINDERRY,4561,QLD,Sunshine Coast Regional Council
NINDIGULLY,,NULL,Balonne Shire Council
NINGI,4511,QLD,Moreton Bay Regional Council
NOBBY,4360,QLD,Toowoomba Regional Council
NOOSA,,NULL,Sunshine Coast Regional Council
NOOSA HEADS,4567,QLD,Sunshine Coast Regional Council
NOOSA SHIRE,,NULL,Sunshine Coast Regional Council
NOOSA WATERS,,NULL,Sunshine Coast Regional Council
NOOSAVILLE,4566,QLD,Sunshine Coast Regional Council
NORMAN PARK,4170,QLD,Brisbane City Council
NORTH ARM,4561,QLD,Sunshine Coast Regional Council
NORTH BUDERIM,,NULL,Sunshine Coast Regional Council
NORTH LAKES,4509,QLD,Moreton Bay Regional Council
NORTH MACLEAN,4280,QLD,Logan City Council
NORTH MALENY,4552,QLD,Sunshine Coast Regional Council
NORTH RICHMOND,2754,NSW,Out Of State
NORTH ROCKHAMPTON,,NULL,Rockhampton Regional Council
NORTH SHORE,3214,VIC,Sunshine Coast Regional Council
NORTH STAR,2408,NSW,Out Of State
NORTH STRADBROKE ISLAND,4183,QLD,Redland Shire Council
NORTH TAMBORINE,4272,QLD,Scenic Rim Regional Council
NORTH TUMBULGUM,2490,NSW,Out Of State
NORTHGATE,4013,QLD,Brisbane City Council
NORTHLAKES,,NULL,Moreton Bay Regional Council
NORTHSHORE,,NULL,Sunshine Coast Regional Council
NTH BUDERIM,,NULL,Sunshine Coast Regional Council
NUDGEE,4014,QLD,Brisbane City Council
NUDGEE BEACH,4014,QLD,Brisbane City Council
NUMINBAH,2484,NSW,Gold Coast City
NUMINBAH VALLEY,4211,QLD,Gold Coast City
NUNDAH,4012,QLD,Brisbane City Council
NUNDERI,2484,NSW,Out Of State
NYNGARIE,,NULL,Quilpie Shire Council
OAKEY,4401,QLD,Toowoomba Regional Council
OAKVIEW,4600,QLD,Gympie Regional Council
OBI OBI,4574,QLD,Sunshine Coast Regional Council
OCEAN VIEW,4521,QLD,Moreton Bay Regional Council
O'REILLYS PLATEAU,,NULL,Gold Coast City
OREMAU,,NULL,Gold Coast City
ORMEAU,4208,QLD,Gold Coast City
ORMISTON,4160,QLD,Redland Shire Council
OWANYILLA,4650,QLD,Fraser Coast Regional Council
OXENFORD,4210,QLD,Gold Coast City
OXFORD PARK,,NULL,Brisbane City Council
OXLEY,4075,QLD,Brisbane City Council
PACIFIC PARADISE,4564,QLD,Sunshine Coast Regional Council
PACIFIC PINES,4211,QLD,Gold Coast City
PADDINGTON,4064,QLD,Brisbane City Council
PALEN CREEK,4287,QLD,Scenic Rim Regional Council
PALLARA,4110,QLD,Brisbane City Council
PALM BEACH,4221,QLD,Gold Coast City
PALMVIEW,4553,QLD,Sunshine Coast Regional Council
PALMWOODS,4555,QLD,Sunshine Coast Regional Council
PARADISE POINT,4216,QLD,Gold Coast City
PARK RIDGE,4125,QLD,Logan City Council
PARKES,2870,NSW,Out Of State
PARKINSON,4115,QLD,Brisbane City Council
PARKLANDS,4560,QLD,Sunshine Coast Regional Council
PARKWOOD,4214,QLD,Gold Coast City
PARREARRA,4575,QLD,Sunshine Coast Regional Council
PEACHESTER,4519,QLD,Sunshine Coast Regional Council
PEAK CROSSING,4306,QLD,Scenic Rim Regional Council
PEBBLE BEACH,,NULL,Moreton Bay Regional Council
PECHEY,4352,QLD,Toowoomba Regional Council
PEEL ISLAND,4184,QLD,Redland Shire Council
PELICAN WATERS,4551,QLD,Sunshine Coast Regional Council
PEREGIAN BEACH,4573,QLD,Sunshine Coast Regional Council
PEREGIAN BEACH SOUTH,,NULL,Sunshine Coast Regional Council
PEREGIAN SPRINGS,4573,QLD,Sunshine Coast Regional Council
PERIGIAN BEACH,,NULL,Sunshine Coast Regional Council
PETRIE,4502,QLD,Moreton Bay Regional Council
PIALBA,4655,QLD,Fraser Coast Regional Council
PICNIC POINT,2213,NSW,Sunshine Coast Regional Council
PILTON,4361,QLD,Toowoomba Regional Council
PIMPAMA,4209,QLD,Gold Coast City
PINBARREN,4568,QLD,Sunshine Coast Regional Council
PINE MOUNTAIN,4306,QLD,Scenic Rim Regional Council
PINE RIVERS,,NULL,Moreton Bay Regional Council
PINELANDS,4355,QLD,Toowoomba Regional Council
PINJARRA HILLS,4069,QLD,Brisbane City Council
PINKENBA,4008,QLD,Brisbane City Council
PINKINBA,,NULL,Brisbane City Council
PIOMER PARK,,NULL,Sunshine Coast Regional Council
PITTSBURGH,,NULL,Toowoomba Regional Council
PITTSWORTH,4356,QLD,Toowoomba Regional Council
PLACID HILLS,4343,QLD,Lockyer Valley Regional Council
PLAINLAND,4341,QLD,Lockyer Valley Regional Council
POINT ARKWRIGHT,4573,QLD,Sunshine Coast Regional Council
POINT CARTWRIGHT,,NULL,Sunshine Coast Regional Council
POINT HALLORAN,,NULL,Redland Shire Council
POINT LOOKOUT,4183,QLD,Redland Shire Council
POINT VERNON,4655,QLD,Fraser Coast Regional Council
POMONA,4568,QLD,Sunshine Coast Regional Council
PONA BEACH,,NULL,Fraser Coast Regional Council
POONA,4650,QLD,Bundaberg Regional Council
PORT LINCOLN,5606,SA,Out Of State
PORT NOARLUNGA,5167,SA,Out Of State
PORT OF BRISBANE,4178,QLD,Brisbane City Council
POTTSVILLE,2489,NSW,Out Of State
PRATTEN,4370,QLD,Southern Downs Regional Council
PRESTON,4800,QLD,Whitsunday Regional Council
PRIESTDALE,4127,QLD,Logan City Council
PRIESTDALE/LISMORE,,NULL,Lismore
PROSERPINE,4800,QLD,Whitsunday Regional Council
PROSTON,4613,QLD,South Burnett Regional Council
PRYDE CREEK,,NULL,Somerset Regional Council
PT CARTWRIGHT,,NULL,Sunshine Coast Regional Council
PULLENVALE,4069,QLD,Brisbane City Council
PURGA,4306,QLD,Scenic Rim Regional Council
PYAGRAH,,NULL,Lismore
QUINALOW,4403,QLD,Toowoomba Regional Council
QUOIN ISLAND,4680,QLD,Gladstone Regional Council
RABY BAY,,NULL,Redland Shire Council
RAINBOW BEACH,4581,QLD,Gympie Regional Council
RANSOME,4154,QLD,Brisbane City Council
RATHDOWNEY,4287,QLD,Scenic Rim Regional Council
RAVENBORN,,NULL,Sunshine Coast Regional Council
RAVENSBOURNE,4352,QLD,Toowoomba Regional Council
RED HILL,4059,QLD,Brisbane City Council
REDBANK PLAINS,4301,QLD,Scenic Rim Regional Council
REDCLIFFE,4020,QLD,Moreton Bay Regional Council
REDHILL,5521,SA,Brisbane City Council
REDLAND BAY,4165,QLD,Redland Shire Council
REEDY CREEK,4227,QLD,Gold Coast City
REESEVILLE,,NULL,Sunshine Coast Regional Council
REESVILLE,4552,QLD,Sunshine Coast Regional Council
REGENCY DOWNS,4341,QLD,Lockyer Valley Regional Council
REGENTS PARK,4118,QLD,Logan City Council
RICHLANDS,4077,QLD,Brisbane City Council
RICHMOND,4822,QLD,Richmond Shire Council
RICHMOND HILL,4820,QLD,Out Of State
RIDGEHAVEN,5097,SA,Sunshine Coast Regional Council
RIDGEWOOD,4563,QLD,Sunshine Coast Regional Council
RILEYS HILL,2472,NSW,Out Of State
RINGTAIL CREEK,4565,QLD,Sunshine Coast Regional Council
RIO VISTA,,NULL,Sunshine Coast Regional Council
RIPLEY,4306,QLD,Scenic Rim Regional Council
RIVERHILLS,4074,QLD,Brisbane City Council
RIVERVIEW,4303,QLD,Scenic Rim Regional Council
ROBINA,4226,QLD,Gold Coast City
ROCHEDALE,4123,QLD,Logan City Council
ROCHEDALE SOUTH,4123,QLD,Logan City Council
ROCKHAMPTON,4700,QLD,Rockhampton Regional Council
ROCKLEA,4106,QLD,Brisbane City Council
ROCKMOUNT,4344,QLD,Lockyer Valley Regional Council
ROCKSBERG,4510,QLD,Moreton Bay Regional Council
ROLLESTON,4702,QLD,Central Highlands Regional Council
ROMA,4455,QLD,Roma Regional Council
ROSEBANK,2480,NSW,Out Of State
ROSEDALE,4674,QLD,Bundaberg Regional Council
ROSEMOUNT,4560,QLD,Sunshine Coast Regional Council
ROSEVALE,4340,QLD,Scenic Rim Regional Council
ROSEWOOD,4340,QLD,Scenic Rim Regional Council
ROSSVILLE,4895,QLD,Cook Shire Council
ROTHWELL,4022,QLD,Moreton Bay Regional Council
ROUS,2477,NSW,Out Of State
ROXBERG,,NULL,Moreton Bay Regional Council
RUNAWAY BAY,4216,QLD,Gold Coast City
RUNCORN,4113,QLD,Brisbane City Council
RUSH CREEK,4521,QLD,Moreton Bay Regional Council
RUSSELL ISLAND,4184,QLD,Redland Shire Council
RUTHVEN,2480,NSW,Lismore
RUTHVER,,NULL,Out Of State
SAINT HELENA ISLAND,,NULL,Brisbane City Council
SAINT LAWRENCE,4707,QLD,Isaac Regional Council
SALISBURY,4107,QLD,Brisbane City Council
SAMFORD,4520,QLD,Moreton Bay Regional Council
SAMFORD VALLEY,4520,QLD,Moreton Bay Regional Council
SAMFORD VILLAGE,4520,QLD,Moreton Bay Regional Council
SAMSONVALE,4520,QLD,Moreton Bay Regional Council
SANCTUARY COVE,4212,QLD,Gold Coast City
SANDGATE,4017,QLD,Brisbane City Council
SANDSTONE POINT,4511,QLD,Moreton Bay Regional Council
SANDY CREEK,4515,QLD,Somerset Regional Council
SARINA,4737,QLD,Sarina Shire Council
SCARBOROUGH,4020,QLD,Moreton Bay Regional Council
SCOTTS HEAD,2447,NSW,Out Of State
SCRUBBY CREEK,4570,QLD,Moreton Bay Regional Council
SEAFORTH,4741,QLD,Mackay Regional Council
SEALANDS,,NULL,Lismore
SEVEN HILLS,4170,QLD,Brisbane City Council
SEVENTEEN MILE ROCKS,4073,QLD,Brisbane City Council
SEVENTEEN SEVENTY,4677,QLD,Gladstone Regional Council
SHAILER PARK,4128,QLD,Logan City Council
SHALLER PARK,,NULL,Logan City Council
SHELDON,4157,QLD,Redland Shire Council
SHELLEY BEACH,,NULL,Sunshine Coast Regional Council
SHELLY BEACH,4810,QLD,Sunshine Coast Regional Council
SHERWOOD,4075,QLD,Brisbane City Council
SHORNCLIFFE,4017,QLD,Brisbane City Council
SINNAMON PARK,4073,QLD,Brisbane City Council
SIPPY DOWNS,4556,QLD,Sunshine Coast Regional Council
SLACKS CREEK,4127,QLD,Logan City Council
SOMERSET,7322,TAS,Somerset Regional Council
SOMERSET DAM,4312,QLD,Somerset Regional Council
SOUTH BANK,,NULL,Brisbane City Council
SOUTH BRISBANE,4101,QLD,Brisbane City Council
SOUTH GRAFTON,2460,NSW,Out Of State
SOUTH GUNDARIMBA,,NULL,Out Of State
SOUTH LISMORE,2480,NSW,Out Of State
SOUTH TOOWOOMBA,4350,QLD,Toowoomba Regional Council
SOUTHBROOK,4363,QLD,Toowoomba Regional Council
SOUTHPORT,4215,QLD,Gold Coast City
SOVERIGN ISLANDS,,NULL,Logan City Council
SPRING CREEK (GATTON),,NULL,Lockyer Valley Regional Council
SPRING GROVE,2470,NSW,Out Of State
SPRING HILL,4004,QLD,Brisbane City Council
SPRINGBROOK,4213,QLD,Gold Coast City
SPRINGFIELD,4871,QLD,Scenic Rim Regional Council
SPRINGWOOD,4127,QLD,Logan City Council
ST GEORGE,4487,QLD,Balonne Shire Council
ST JOHNS WOOD,,NULL,Brisbane City Council
ST LAWRENCE,4707,QLD,Isaac Regional Council
ST LUCIA,4067,QLD,Brisbane City Council
STAFFORD,4053,QLD,Brisbane City Council
STAFFORD HEIGHTS,4053,QLD,Brisbane City Council
STANMORE,4514,QLD,Moreton Bay Regional Council
STANMORE (CABOOLTURE),,NULL,Moreton Bay Regional Council
STANTHORPE,4380,QLD,Southern Downs Regional Council
STAPLETON,822,NT,Logan City Council
STAPYLTON,4207,QLD,Gold Coast City
STEIGHITZ,4207,QLD,Redland Shire Council
STOCKLEIGH,4280,QLD,Logan City Council
STONES CORNER,4120,QLD,Brisbane City Council
STONEY CREEK,,NULL,Moreton Bay Regional Council
STONEY CREEK,4514,QLD,Moreton Bay Regional Council
STRADBROKE ISLAND,,NULL,Gold Coast City
STRATHPINE,4500,QLD,Moreton Bay Regional Council
STUDIO VILLAGE,4210,QLD,Gold Coast City
SUFFOLK PARK,2481,NSW,Out Of State
SUMNER PARK,,NULL,Brisbane City Council
SUNNYBANK,4109,QLD,Brisbane City Council
SUNNYBANK HILLS,4109,QLD,Brisbane City Council
SUNRISE,,NULL,Sunshine Coast Regional Council
SUNRISE BEACH,4567,QLD,Sunshine Coast Regional Council
SUNSHINE BEACH,4567,QLD,Sunshine Coast Regional Council
SUNSHINE COAST,,NULL,Sunshine Coast Regional Council
SURFERS PARADISE,4217,QLD,Gold Coast City
SURFER'S PARADISE,,NULL,Gold Coast City
SWAN BAY,2471,NSW,Ballina
SYDNEY,2001,NSW,Out Of State
TAABINGA,4610,QLD,South Burnett Regional Council
TABULAM,2469,NSW,Out Of State
TABULUM,,NULL,Richmond Shire Council
TAIGUM,4018,QLD,Brisbane City Council
TAKURA,4655,QLD,Fraser Coast Regional Council
TALLAI,4213,QLD,Gold Coast City
TALLEBUDGEERA,,NULL,Gold Coast City
TALLEBUDGERA,4228,QLD,Gold Coast City
TALLEBUDGERA VALLEY,4228,QLD,Gold Coast City
TALLEGALLA,4340,QLD,Ipswich City
TALWOOD,4496,QLD,Goondiwindi Regional Council
TAMBORINE,4270,QLD,Logan City Council
TAMBORINE MTN,,NULL,Logan City Council
TAMBORINE VILLAGE,,NULL,Scenic Rim Regional Council
TAMBOURINE,,NULL,Logan City Council
TAMROOKUM,4285,QLD,Scenic Rim Regional Council
TAMWORTH,2340,NSW,Out Of State
TANAH,,NULL,Sunshine Coast Regional Council
TANAH MERAH,4128,QLD,Logan City Council
TANAHMERAH,,NULL,Logan City Council
TANAWA,,NULL,Sunshine Coast Regional Council
TANAWAH,,NULL,Sunshine Coast Regional Council
TANAWHA,4556,QLD,Sunshine Coast Regional Council
TANDORA,4650,QLD,Fraser Coast Regional Council
TANDUR,4570,QLD,Gympie Regional Council
TANGALOOMA,4025,QLD,Brisbane City Council
TANSEY,4601,QLD,Gympie Regional Council
TANSY,,NULL,Gympie Regional Council
TARA,4421,QLD,Dalby Regional Council
TARAMPA,4311,QLD,Lockyer Valley Regional Council
TARINGA,4068,QLD,Brisbane City Council
TARONG,4615,QLD,South Burnett Regional Council
TAROOM,4420,QLD,Banana Shire Council
TARRAGINDI,4121,QLD,Brisbane City Council
TE KOWAI,4740,QLD,Mackay Regional Council
TEDDINGTON,4650,QLD,Fraser Coast Regional Council
TEERWAH,,NULL,Gympie Regional Council
TEERWAH BEACH,,NULL,Sunshine Coast Regional Council
TEEWAH,,NULL,Sunshine Coast Regional Council
TENERIFFE,4005,QLD,Brisbane City Council
TENNYSON,4105,QLD,Brisbane City Council
TENTERFIELD,2372,NSW,Out Of State
TERANIA CREEK,2480,NSW,Out Of State
TERERIFFE,,NULL,Brisbane City Council
TERRANORA,2486,NSW,Out Of State
TEVIOTVILLE,4309,QLD,Scenic Rim Regional Council
TEWANTIN,4565,QLD,Sunshine Coast Regional Council
TEXAS,4385,QLD,Goondiwindi Regional Council
THAGOONA,4306,QLD,Ipswich City
THE CHANNON,2480,NSW,Out Of State
THE GAP,4825,QLD,Brisbane City Council
THE GRANGE,,NULL,Brisbane City Council
THE GUMS,4406,QLD,Dalby Regional Council
THEODORE,4719,QLD,Banana Shire Council
THORNELANDS,,NULL,Redland Shire Council
THORNESIDE,4158,QLD,Redland Shire Council
THORNLANDS,4164,QLD,Redland Shire Council
THORNSIDE,,NULL,Redland Shire Council
TIARO,4650,QLD,Fraser Coast Regional Council
TIN CAN BAY,4580,QLD,Gympie Regional Council
TINANA,4650,QLD,Fraser Coast Regional Council
TINAROO,4872,QLD,Tablelands Regional Council
TINBEERWAH,4563,QLD,Sunshine Coast Regional Council
TINGALPA,4173,QLD,Redland Shire Council
TINGOORA,4608,QLD,South Burnett Regional Council
TINGORA,,NULL,South Burnett Regional Council
TOCUMWAL,2714,NSW,Out Of State
TOLGA,4882,QLD,Tablelands Regional Council
TOMEWIN,2484,NSW,Out Of State
TOOGOOLAWA,,NULL,Somerset Regional Council
TOOGOOLAWAH,4313,QLD,Somerset Regional Council
TOOGOOM,4655,QLD,Fraser Coast Regional Council
TOOLARA FOREST,4570,QLD,Cooloola Shire Council
TOOMBUL,4012,QLD,Brisbane City Council
TOORBUL,4510,QLD,Moreton Bay Regional Council
TOORBUL POINT,,NULL,Moreton Bay Regional Council
TOORBULL,,NULL,Moreton Bay Regional Council
TOOWONG,4066,QLD,Brisbane City Council
TOOWOOMBA,4350,QLD,Toowoomba Regional Council
TOOWOOMBA BC,4350,QLD,Toowoomba Regional Council
TOOWOOMBA CITY,4350,QLD,Toowoomba Regional Council
TORQUAY,4655,QLD,Fraser Coast Regional Council
TORWOOD,3821,VIC,Brisbane City Council
TOWEN MOUNTAIN,4560,QLD,Sunshine Coast Regional Council
TOWNSVILLE,4810,QLD,Townsville City Council
TRAVESTON,4570,QLD,Gympie Regional Council
TRAVISTON,,NULL,Gympie Regional Council
TREGEAGLE,2480,NSW,Out Of State
TUCHEKOI,4570,QLD,Sunshine Coast Regional Council
TUCKAUMBA/TUCKI,,NULL,Lismore
TUCKERIMBAH,,NULL,Out Of State
TUCKI,,NULL,Lismore
TUCKI TUCKI,2480,NSW,Out Of State
TUCKIMBIL,,NULL,Lismore
TUGUN,4224,QLD,Gold Coast City
TULLAMORE,2874,NSW,Out Of State
TULLAWONG,,NULL,Moreton Bay Regional Council
TULLERA,2480,NSW,Out Of State
TUNTABLE CREEK,2480,NSW,Lismore
TURKEY BEACH,4678,QLD,Gladstone Regional Council
TWEED HEADS,2485,NSW,Out Of State
TWEED HEADS SOUTH,2486,NSW,Out Of State
TWIN WATERS,4564,QLD,Sunshine Coast Regional Council
TYAGARAH,2481,NSW,Out Of State
UKI,2484,NSW,Out Of State
UNDERWOOD,4119,QLD,Logan City Council
UNKNOWN,,NULL,Moreton Bay Regional Council
UPPER BROOKFIELD,4069,QLD,Brisbane City Council
UPPER CABOOLTURE,4510,QLD,Moreton Bay Regional Council
UPPER COOMERA,4209,QLD,Gold Coast City
UPPER KEDRON,4055,QLD,Brisbane City Council
UPPER MOUNT GRAVATT,4122,QLD,Brisbane City Council
UPPER ORMEAU,,NULL,Logan City Council
UQ LAKES,,NULL,Brisbane City Council
URALBA,2477,NSW,Out Of State
URALLA,2358,NSW,Lismore
URANGAN,4655,QLD,Fraser Coast Regional Council
URBANVILLE,,NULL,Lismore
VALDORA,4561,QLD,Sunshine Coast Regional Council
VARSITY LAKES,4227,QLD,Gold Coast City
VERESDALE SCRUB,4285,QLD,Scenic Rim Regional Council
VERRIERDALE,4562,QLD,Sunshine Coast Regional Council
VETERAN,4570,QLD,Gympie Regional Council
VIA WOODFORD,,NULL,Moreton Bay Regional Council
VICTORIA POINT,4165,QLD,Redland Shire Council
VILLENEUVE,4514,QLD,Moreton Bay Regional Council
VILLENUVE,,NULL,Somerset Regional Council
VIRGINIA,4014,QLD,Brisbane City Council
WACOL,4076,QLD,Brisbane City Council
WADEVILLE,2474,NSW,Out Of State
WAIMURAN,,NULL,Moreton Bay Regional Council
WAKERLEY,4154,QLD,Brisbane City Council
WAKERLY,,NULL,Brisbane City Council
WALGETT,2832,NSW,Walgett Shire Council
WALLACE CREEK,,NULL,Scenic Rim Regional Council
WALLAVILLE,4671,QLD,Bundaberg Regional Council
WAMBERAL,2260,NSW,Out Of State
WAMBO,,NULL,Dalby Regional Council
WAMORAN,,NULL,Moreton Bay Regional Council
WAMURAN,4512,QLD,Moreton Bay Regional Council
WANDOAN,4419,QLD,Dalby Regional Council
WARANA,4575,QLD,Sunshine Coast Regional Council
WARANA BEACH,,NULL,Sunshine Coast Regional Council
WARDELL,2477,NSW,Out Of State
WARNER,4500,QLD,Moreton Bay Regional Council
WARNER LAKES,,NULL,Moreton Bay Regional Council
WARRAZAMBIL CREEK,2474,NSW,Out Of State
WARWICK,4370,QLD,Southern Downs Regional Council
WATERFORD,4133,QLD,Logan City Council
WATERFORD HEIGHTS,,NULL,Logan City Council
WATERFORD WEST,4133,QLD,Logan City Council
WATTLE CAMP,4615,QLD,Somerset Regional Council
WAVEL HEIGHTS,,NULL,Brisbane City Council
WAVELL HEIGHTS,4012,QLD,Brisbane City Council
WEENGALLON,4497,QLD,Balonne Shire Council
WEIPA,4874,QLD,Weipa Town Council
WELLINGTON POINT,4160,QLD,Redland Shire Council
WEST END (SOUTH BRISBANE),,NULL,Brisbane City Council
WEST WOOMBYE,4559,QLD,Sunshine Coast Regional Council
WESTBROOK,4350,QLD,Toowoomba Regional Council
WESTLAKE,4074,QLD,Brisbane City Council
WESTMAR,4422,QLD,Western Downs Regional Council
WEYBA,,NULL,Sunshine Coast Regional Council
WEYBA DOWNS,4562,QLD,Sunshine Coast Regional Council
WHIAN WHIAN,2480,NSW,Out Of State
WHITE PATCH,4507,QLD,Moreton Bay Regional Council
WHITESIDE,4503,QLD,Moreton Bay Regional Council
WIDGEE,4570,QLD,Gympie Regional Council
WIGHTS MOUNTAIN,4520,QLD,Moreton Bay Regional Council
WILLAWONG,4110,QLD,Brisbane City Council
WILLOW VALE,4209,QLD,Gold Coast City
WILLOWBANK,4306,QLD,Scenic Rim Regional Council
WILLUNGA,5172,SA,Out Of State
WILSONS CREEK,2482,NSW,Lismore
WILSON'S CREEK,,NULL,Lismore
WILSTON,4051,QLD,Brisbane City Council
WINDAROO,4207,QLD,Logan City Council
WINDERA,4605,QLD,South Burnett Regional Council
WINDSOR,4030,QLD,Brisbane City Council
WINTON,4735,QLD,Winton Shire Council
WISHART,4122,QLD,Brisbane City Council
WITHCOTT,4352,QLD,Lockyer Valley Regional Council
WITHEREN,4275,QLD,Scenic Rim Regional Council
WITHERTON,,NULL,Scenic Rim Regional Council
WITTA,4552,QLD,Sunshine Coast Regional Council
WIVENHOE,7320,TAS,Somerset Regional Council
WIVENHOE POCKET,4306,QLD,Somerset Regional Council
WOLEEBEE,4426,QLD,Roma Regional Council
WOLLONGBAR,2477,NSW,Out Of State
WOLVI,4570,QLD,Gympie Regional Council
WONDAI,4606,QLD,South Burnett Regional Council
WONDI,,NULL,South Burnett Regional Council
WONGAWALLAN,4210,QLD,Gold Coast City
WONGAWALLEN,,NULL,Logan City Council
WONGLEPONG,4275,QLD,Scenic Rim Regional Council
WOODENBONG,2476,NSW,Out Of State
WOODEND,4305,QLD,Scenic Rim Regional Council
WOODFORD,4514,QLD,Moreton Bay Regional Council
WOODGATE,4660,QLD,Bundaberg Regional Council
WOODLAND,,NULL,Sunshine Coast Regional Council
WOODLANDS,4343,QLD,Sunshine Coast Regional Council
WOODRIDGE,4114,QLD,Logan City Council
WOODY POINT,4019,QLD,Moreton Bay Regional Council
WOODY PT,,NULL,Moreton Bay Regional Council
WOOLLANGABBA,,NULL,Brisbane City Council
WOOLLOONGABBA,4102,QLD,Brisbane City Council
WOOLMAR,4515,QLD,Somerset Regional Council
WOOLMER,4352,QLD,Toowoomba Regional Council
WOOLONTON,,NULL,Moreton Bay Regional Council
WOOLOOGA,4570,QLD,Gympie Regional Council
WOOLOOWIN,4030,QLD,Brisbane City Council
WOOMBYE,4559,QLD,Sunshine Coast Regional Council
WOOMEAH,,NULL,Out Of State
WOONDUM,4570,QLD,Gympie Regional Council
WOORIM,4507,QLD,Moreton Bay Regional Council
WOORIM BEACH,,NULL,Moreton Bay Regional Council
WOOROOLIN,4608,QLD,South Burnett Regional Council
WOOTHA,4552,QLD,Sunshine Coast Regional Council
WORONGARY,4213,QLD,Gold Coast City
WURTALLA BEACH,,NULL,Sunshine Coast Regional Council
WURTULLA,4575,QLD,Sunshine Coast Regional Council
WYEBA,,NULL,Sunshine Coast Regional Council
WYNALLAH,,NULL,Lismore
WYNNUM,4178,QLD,Brisbane City Council
WYNNUM NORTH,4178,QLD,Brisbane City Council
WYNNUM WEST,4178,QLD,Brisbane City Council
WYRALLA,,NULL,Lismore
WYRALLAH,2480,NSW,Out Of State
WYREEMA,4352,QLD,Toowoomba Regional Council
YALANGUR,4352,QLD,Toowoomba Regional Council
YAMANTO,4305,QLD,Scenic Rim Regional Council
YAMBA,5340,SA,Out Of State
YANDINA,4561,QLD,Sunshine Coast Regional Council
YANDINA CREEK,4561,QLD,Sunshine Coast Regional Council
YANGAN,4371,QLD,Southern Downs Regional Council
YAROOMBA,4573,QLD,Sunshine Coast Regional Council
YARRAMAN,4614,QLD,Toowoomba Regional Council
YARRAMEN,,NULL,South Burnett Regional Council
YARWUN,4694,QLD,Gladstone Regional Council
YATALA,4207,QLD,Gold Coast City
YEERONGPILLY,4105,QLD,Brisbane City Council
YELARBON,4388,QLD,Toowoomba Regional Council
YEPPOON,4703,QLD,Rockhampton Regional Council
YERONGA,4104,QLD,Brisbane City Council
YIMBUN,4313,QLD,Somerset Regional Council
YUGAR,4520,QLD,Moreton Bay Regional Council
ZEEHAN,7469,TAS,Out Of State
ZILLMERE,4034,QLD,Brisbane City Council
